IRIDIUM 26              
1 24903U 97043A   25166.09731104  .00000372  00000+0  11857-3 0  9992
2 24903  86.3954 111.5007 0002488  86.4155 273.7326 14.37144902456911
IRIDIUM 22              
1 24907U 97043E   25165.60730052  .00000341  00000+0  11077-3 0  9993
2 24907  86.3958 115.2434 0002326  84.5291 275.6171 14.35957376456391
DUMMY MASS 1            
1 24925U 97048A   25166.19647724  .00000382  00000+0  39532-4 0  9998
2 24925  86.3350 136.2495 0008033 137.8716 222.3128 14.86985280505074
DUMMY MASS 2            
1 24926U 97048B   25165.41792222  .00000395  00000+0  41210-4 0  9997
2 24926  86.3348 138.2157 0008276 151.4915 208.6764 14.86737037504494
IRIDIUM 29              
1 24944U 97051A   25165.49182580  .00000393  00000+0  12735-3 0  9996
2 24944  86.3965 145.0277 0002106  86.0842 274.0595 14.36466252452883
IRIDIUM 33              
1 24946U 97051C   25165.95884208  .00000293  00000+0  96137-4 0  9993
2 24946  86.3880 144.0917 0010123  86.4682 273.7672 14.34891672452434
IRIDIUM 28              
1 24948U 97051E   25166.02424182  .00000312  00000+0  98005-4 0  9993
2 24948  86.3969 142.3223 0002787  88.8863 271.2654 14.37385192453600
IRIDIUM 36              
1 24967U 97056C   25165.77911146  .00000361  00000+0  11375-3 0  9999
2 24967  86.3986 174.0087 0002468  84.1400 276.0079 14.37608629451876
